CTC1_L_00062001-01
1 74475U 22795CG  26070.40831019  .00000000  00000+0  00000-0 0  9992
2 74475  65.0000   0.0000 0000000   0.0000   0.0000 14.98995063    15
CTC1_L_00062001-02
1 74476U 22781WV  26070.40831019  .00000000  00000+0  00000-0 0  9998
2 74476  65.0000   0.0000 0000000   0.0000  90.0000 14.98995063    15
CTC1_L_00062001-03
1 74477U 24865LA  26070.40831019  .00000000  00000+0  00000-0 0  9994
2 74477  65.0000   0.0000 0000000   0.0000 180.0000 14.98995063    16
CTC1_L_00062001-04
1 74478U 23446XH  26070.40831019  .00000000  00000+0  00000-0 0  9999
2 74478  65.0000   0.0000 0000000   0.0000 270.0000 14.98995063    17
CTC1_L_00062002-01
1 74479U 22283UK  26070.40831019  .00000000  00000+0  00000-0 0  9998
2 74479  65.0000  12.0000 0000000   0.0000  12.0000 14.98995063    15
CTC1_L_00062002-02
1 74480U 22873EG  26070.40831019  .00000000  00000+0  00000-0 0  9995
2 74480  65.0000  12.0000 0000000   0.0000 102.0000 14.98995063    17
CTC1_L_00062002-03
1 74481U 25688EU  26070.40831019  .00000000  00000+0  00000-0 0  9993
2 74481  65.0000  12.0000 0000000   0.0000 192.0000 14.98995063    17
CTC1_L_00062002-04
1 74482U 22286TL  26070.40831019  .00000000  00000+0  00000-0 0  9995
2 74482  65.0000  12.0000 0000000   0.0000 282.0000 14.98995063    18
CTC1_L_00062003-01
1 74483U 23128QP  26070.40831019  .00000000  00000+0  00000-0 0  9992
2 74483  65.0000  24.0000 0000000   0.0000  24.0000 14.98995063    16
CTC1_L_00062003-02
1 74484U 24521YB  26070.40831019  .00000000  00000+0  00000-0 0  9991
2 74484  65.0000  24.0000 0000000   0.0000 114.0000 14.98995063    17
CTC1_L_00062003-03
1 74485U 22775PH  26070.40831019  .00000000  00000+0  00000-0 0  9991
2 74485  65.0000  24.0000 0000000   0.0000 204.0000 14.98995063    18
CTC1_L_00062003-04
1 74486U 24863GX  26070.40831019  .00000000  00000+0  00000-0 0  9992
2 74486  65.0000  24.0000 0000000   0.0000 294.0000 14.98995063    18
CTC1_L_00062004-01
1 74487U 25364UV  26070.40831019  .00000000  00000+0  00000-0 0  9990
2 74487  65.0000  36.0000 0000000   0.0000  36.0000 14.98995063    16
CTC1_L_00062004-02
1 74488U 23719IC  26070.40831019  .00000000  00000+0  00000-0 0  9993
2 74488  65.0000  36.0000 0000000   0.0000 126.0000 14.98995063    17
CTC1_L_00062004-03
1 74489U 24259IJ  26070.40831019  .00000000  00000+0  00000-0 0  9994
2 74489  65.0000  36.0000 0000000   0.0000 216.0000 14.98995063    18
CTC1_L_00062004-04
1 74490U 22311UP  26070.40831019  .00000000  00000+0  00000-0 0  9993
2 74490  65.0000  36.0000 0000000   0.0000 306.0000 14.98995063    10
CTC1_L_00062005-01
1 74491U 24380DM  26070.40831019  .00000000  00000+0  00000-0 0  9992
2 74491  65.0000  48.0000 0000000   0.0000  48.0000 14.98995063    17
CTC1_L_00062005-02
1 74492U 23983TZ  26070.40831019  .00000000  00000+0  00000-0 0  9991
2 74492  65.0000  48.0000 0000000   0.0000 138.0000 14.98995063    18
CTC1_L_00062005-03
1 74493U 24407JX  26070.40831019  .00000000  00000+0  00000-0 0  9994
2 74493  65.0000  48.0000 0000000   0.0000 228.0000 14.98995063    19
CTC1_L_00062005-04
1 74494U 23111PY  26070.40831019  .00000000  00000+0  00000-0 0  9996
2 74494  65.0000  48.0000 0000000   0.0000 318.0000 14.98995063    10
CTC1_L_00062006-01
1 74495U 22821CY  26070.40831019  .00000000  00000+0  00000-0 0  9994
2 74495  65.0000  60.0000 0000000   0.0000  60.0000 14.98995063    19
CTC1_L_00062006-02
1 74496U 25810WE  26070.40831019  .00000000  00000+0  00000-0 0  9996
2 74496  65.0000  60.0000 0000000   0.0000 150.0000 14.98995063    10
CTC1_L_00062006-03
1 74497U 25813GE  26070.40831019  .00000000  00000+0  00000-0 0  9990
2 74497  65.0000  60.0000 0000000   0.0000 240.0000 14.98995063    11
CTC1_L_00062006-04
1 74498U 24964JR  26070.40831019  .00000000  00000+0  00000-0 0  9997
2 74498  65.0000  60.0000 0000000   0.0000 330.0000 14.98995063    12
CTC1_L_00062007-01
1 74499U 24100QF  26070.40831019  .00000000  00000+0  00000-0 0  9990
2 74499  65.0000  72.0000 0000000   0.0000  72.0000 14.98995063    19
CTC1_L_00062007-02
1 74500U 26491XQ  26070.40831019  .00000000  00000+0  00000-0 0  9998
2 74500  65.0000  72.0000 0000000   0.0000 162.0000 14.98995063    12
CTC1_L_00062007-03
1 74501U 25287BQ  26070.40831019  .00000000  00000+0  00000-0 0  9991
2 74501  65.0000  72.0000 0000000   0.0000 252.0000 14.98995063    13
CTC1_L_00062007-04
1 74502U 24372AN  26070.40831019  .00000000  00000+0  00000-0 0  9996
2 74502  65.0000  72.0000 0000000   0.0000 342.0000 14.98995063    14
CTC1_L_00062008-01
1 74503U 26182TD  26070.40831019  .00000000  00000+0  00000-0 0  9998
2 74503  65.0000  84.0000 0000000   0.0000  84.0000 14.98995063    11
CTC1_L_00062008-02
1 74504U 23341YR  26070.40831019  .00000000  00000+0  00000-0 0  9993
2 74504  65.0000  84.0000 0000000   0.0000 174.0000 14.98995063    12
CTC1_L_00062008-03
1 74505U 26651YN  26070.40831019  .00000000  00000+0  00000-0 0  9991
2 74505  65.0000  84.0000 0000000   0.0000 264.0000 14.98995063    13
CTC1_L_00062008-04
1 74506U 26469HL  26070.40831019  .00000000  00000+0  00000-0 0  9999
2 74506  65.0000  84.0000 0000000   0.0000 354.0000 14.98995063    14
CTC1_L_00062009-01
1 74507U 22498CF  26070.40831019  .00000000  00000+0  00000-0 0  9998
2 74507  65.0000  96.0000 0000000   0.0000  96.0000 14.98995063    11
CTC1_L_00062009-02
1 74508U 25133HM  26070.40831019  .00000000  00000+0  00000-0 0  9998
2 74508  65.0000  96.0000 0000000   0.0000 186.0000 14.98995063    12
CTC1_L_00062009-03
1 74509U 26367IO  26070.40831019  .00000000  00000+0  00000-0 0  9999
2 74509  65.0000  96.0000 0000000   0.0000 276.0000 14.98995063    13
CTC1_L_00062009-04
1 74510U 23368CO  26070.40831019  .00000000  00000+0  00000-0 0  9999
2 74510  65.0000  96.0000 0000000   0.0000   6.0000 14.98995063    16
CTC1_L_00062010-01
1 74511U 23971CZ  26070.40831019  .00000000  00000+0  00000-0 0  9990
2 74511  65.0000 108.0000 0000000   0.0000 108.0000 14.98995063    14
CTC1_L_00062010-02
1 74512U 23198TQ  26070.40831019  .00000000  00000+0  00000-0 0  9992
2 74512  65.0000 108.0000 0000000   0.0000 198.0000 14.98995063    14
CTC1_L_00062010-03
1 74513U 25005CS  26070.40831019  .00000000  00000+0  00000-0 0  9992
2 74513  65.0000 108.0000 0000000   0.0000 288.0000 14.98995063    15
CTC1_L_00062010-04
1 74514U 26431OQ  26070.40831019  .00000000  00000+0  00000-0 0  9997
2 74514  65.0000 108.0000 0000000   0.0000  18.0000 14.98995063    17
CTC1_L_00062011-01
1 74515U 24219SM  26070.40831019  .00000000  00000+0  00000-0 0  9990
2 74515  65.0000 120.0000 0000000   0.0000 120.0000 14.98995063    16
CTC1_L_00062011-02
1 74516U 23445WG  26070.40831019  .00000000  00000+0  00000-0 0  9991
2 74516  65.0000 120.0000 0000000   0.0000 210.0000 14.98995063    17
CTC1_L_00062011-03
1 74517U 26667EC  26070.40831019  .00000000  00000+0  00000-0 0  9991
2 74517  65.0000 120.0000 0000000   0.0000 300.0000 14.98995063    18
CTC1_L_00062011-04
1 74518U 25010ZA  26070.40831019  .00000000  00000+0  00000-0 0  9993
2 74518  65.0000 120.0000 0000000   0.0000  30.0000 14.98995063    19
CTC1_L_00062012-01
1 74519U 25679MU  26070.40831019  .00000000  00000+0  00000-0 0  9995
2 74519  65.0000 132.0000 0000000   0.0000 132.0000 14.98995063    16
CTC1_L_00062012-02
1 74520U 26631VN  26070.40831019  .00000000  00000+0  00000-0 0  9996
2 74520  65.0000 132.0000 0000000   0.0000 222.0000 14.98995063    18
CTC1_L_00062012-03
1 74521U 25640HA  26070.40831019  .00000000  00000+0  00000-0 0  9996
2 74521  65.0000 132.0000 0000000   0.0000 312.0000 14.98995063    19
CTC1_L_00062012-04
1 74522U 22028BT  26070.40831019  .00000000  00000+0  00000-0 0  9994
2 74522  65.0000 132.0000 0000000   0.0000  42.0000 14.98995063    10
CTC1_L_00062013-01
1 74523U 22001UU  26070.40831019  .00000000  00000+0  00000-0 0  9996
2 74523  65.0000 144.0000 0000000   0.0000 144.0000 14.98995063    17
CTC1_L_00062013-02
1 74524U 23938LY  26070.40831019  .00000000  00000+0  00000-0 0  9997
2 74524  65.0000 144.0000 0000000   0.0000 234.0000 14.98995063    18
CTC1_L_00062013-03
1 74525U 26518Y   26070.40831019  .00000000  00000+0  00000-0 0  9995
2 74525  65.0000 144.0000 0000000   0.0000 324.0000 14.98995063    19
CTC1_L_00062013-04
1 74526U 23797KM  26070.40831019  .00000000  00000+0  00000-0 0  9992
2 74526  65.0000 144.0000 0000000   0.0000  54.0000 14.98995063    10
CTC1_L_00062014-01
1 74527U 24348XK  26070.40831019  .00000000  00000+0  00000-0 0  9996
2 74527  65.0000 156.0000 0000000   0.0000 156.0000 14.98995063    17
CTC1_L_00062014-02
1 74528U 26531FX  26070.40831019  .00000000  00000+0  00000-0 0  9993
2 74528  65.0000 156.0000 0000000   0.0000 246.0000 14.98995063    18
CTC1_L_00062014-03
1 74529U 24622PQ  26070.40831019  .00000000  00000+0  00000-0 0  9993
2 74529  65.0000 156.0000 0000000   0.0000 336.0000 14.98995063    19
CTC1_L_00062014-04
1 74530U 26334GR  26070.40831019  .00000000  00000+0  00000-0 0  9997
2 74530  65.0000 156.0000 0000000   0.0000  66.0000 14.98995063    11
CTC1_L_00062015-01
1 74531U 22570WC  26070.40831019  .00000000  00000+0  00000-0 0  9996
2 74531  65.0000 168.0000 0000000   0.0000 168.0000 14.98995063    18
CTC1_L_00062015-02
1 74532U 24984Z   26070.40831019  .00000000  00000+0  00000-0 0  9998
2 74532  65.0000 168.0000 0000000   0.0000 258.0000 14.98995063    19
CTC1_L_00062015-03
1 74533U 23674KY  26070.40831019  .00000000  00000+0  00000-0 0  9994
2 74533  65.0000 168.0000 0000000   0.0000 348.0000 14.98995063    10
CTC1_L_00062015-04
1 74534U 22961QR  26070.40831019  .00000000  00000+0  00000-0 0  9993
2 74534  65.0000 168.0000 0000000   0.0000  78.0000 14.98995063    11
CTC1_L_00062016-01
1 74535U 26759BP  26070.40831019  .00000000  00000+0  00000-0 0  9993
2 74535  65.0000 180.0000 0000000   0.0000 180.0000 14.98995063    10
CTC1_L_00062016-02
1 74536U 23349RT  26070.40831019  .00000000  00000+0  00000-0 0  9996
2 74536  65.0000 180.0000 0000000   0.0000 270.0000 14.98995063    11
